[Satellite]
VERSION=1.1
NAME=GSAT0201 (GALILEO 5)
NICKNAME=GSAT0201 (GALILEO 5)
TLE1=1 40128U 14050A   17185.30896904 -.00000111  00000-0  00000-0 0  9990
TLE2=2 40128  50.3168  44.5257 1626810  64.1402 311.8073  1.85518538 17687
